start=new Date('2023-06-05T00:00:00.000Z').valueOf();
sats=[{"FILE":"3925173","OBJECT_NAME":"STARLINK-4651","ELEMENT_SET_NO":"999","PERIAPSIS":"538.934","COUNTRY_CODE":"US","OBJECT_TYPE":"PAYLOAD","INCLINATION":"53.2166","RA_OF_ASC_NODE":"103.0229","REF_FRAME":"TEME","DECAY_DATE":null,"TLE_LINE2":"2 53729  53.2166 103.0229 0001189  93.5883 266.5246 15.08836391 42284","GP_ID":"233217741","SITE":"AFETR","CENTER_NAME":"EARTH","PERIOD":"95.438","NORAD_CAT_ID":"53729","REV_AT_EPOCH":"4228","ECCENTRICITY":"0.00011890","BSTAR":"0.00000343920000","MEAN_MOTION_DDOT":"0.0000000000000","LAUNCH_DATE":"2022-09-05","EPOCH":"2023-06-04T20:44:22.490016","SEMIMAJOR_AXIS":"6917.891","MEAN_MOTION":"15.08836391","CLASSIFICATION_TYPE":"U","MEAN_ANOMALY":"266.5246","ARG_OF_PERICENTER":"93.5883","MEAN_ELEMENT_THEORY":"SGP4","OBJECT_ID":"2022-107AF","TIME_SYSTEM":"UTC","TLE_LINE1":"1 53729U 22107AF  23155.86414919 -.00000233  00000-0  34392-5 0  9991","APOAPSIS":"540.579","EPHEMERIS_TYPE":"0","MEAN_MOTION_DOT":"-0.00000233","RCS_SIZE":"LARGE"},{"ARG_OF_PERICENTER":"91.3984","CLASSIFICATION_TYPE":"U","MEAN_ANOMALY":"268.7152","MEAN_MOTION":"15.08841395","EPOCH":"2023-06-04T15:47:36.192192","SEMIMAJOR_AXIS":"6917.876","OBJECT_ID":"2022-107AG","MEAN_ELEMENT_THEORY":"SGP4","BSTAR":"0.00006580000000","ECCENTRICITY":"0.00012550","LAUNCH_DATE":"2022-09-05","MEAN_MOTION_DDOT":"0.0000000000000","RCS_SIZE":"LARGE","MEAN_MOTION_DOT":"0.00000760","EPHEMERIS_TYPE":"0","TIME_SYSTEM":"UTC","TLE_LINE1":"1 53730U 22107AG  23155.65805778  .00000760  00000-0  65800-4 0  9998","APOAPSIS":"540.609","DECAY_DATE":null,"RA_OF_ASC_NODE":"103.8691","REF_FRAME":"TEME","INCLINATION":"53.2159","GP_ID":"233217991","TLE_LINE2":"2 53730  53.2159 103.8691 0001255  91.3984 268.7152 15.08841395 42225","OBJECT_NAME":"STARLINK-4641","FILE":"3925173","OBJECT_TYPE":"PAYLOAD","COUNTRY_CODE":"US","PERIAPSIS":"538.873","ELEMENT_SET_NO":"999","PERIOD":"95.437","REV_AT_EPOCH":"4222","NORAD_CAT_ID":"53730","CENTER_NAME":"EARTH","SITE":"AFETR"},{"BSTAR":"0.00003120600000","ECCENTRICITY":"0.00009530","LAUNCH_DATE":"2022-09-05","MEAN_MOTION_DDOT":"0.0000000000000","ARG_OF_PERICENTER":"91.0510","CLASSIFICATION_TYPE":"U","MEAN_ANOMALY":"269.0592","MEAN_MOTION":"15.08831371","SEMIMAJOR_AXIS":"6917.907","EPOCH":"2023-06-04T20:49:41.014848","OBJECT_ID":"2022-107AH","MEAN_ELEMENT_THEORY":"SGP4","TIME_SYSTEM":"UTC","TLE_LINE1":"1 53731U 22107AH  23155.86783582  .00000209  00000-0  31206-4 0  9991","APOAPSIS":"540.431","RCS_SIZE":"LARGE","MEAN_MOTION_DOT":"0.00000209","EPHEMERIS_TYPE":"0","OBJECT_NAME":"STARLINK-4636","FILE":"3925173","COUNTRY_CODE":"US","OBJECT_TYPE":"PAYLOAD","PERIAPSIS":"539.112","ELEMENT_SET_NO":"999","DECAY_DATE":null,"RA_OF_ASC_NODE":"103.0461","REF_FRAME":"TEME","INCLINATION":"53.2163","GP_ID":"233218743","TLE_LINE2":"2 53731  53.2163 103.0461 0000953  91.0510 269.0592 15.08831371 42285","CENTER_NAME":"EARTH","SITE":"AFETR","PERIOD":"95.438","REV_AT_EPOCH":"4228","NORAD_CAT_ID":"53731"},{"EPHEMERIS_TYPE":"0","MEAN_MOTION_DOT":"0.00002433","RCS_SIZE":"LARGE","APOAPSIS":"540.608","TIME_SYSTEM":"UTC","TLE_LINE1":"1 53732U 22107AJ  23155.66270247  .00002433  00000-0  17097-3 0  9991","MEAN_ELEMENT_THEORY":"SGP4","OBJECT_ID":"2022-107AJ","SEMIMAJOR_AXIS":"6917.909","EPOCH":"2023-06-04T15:54:17.493408","MEAN_MOTION":"15.08830568","CLASSIFICATION_TYPE":"U","MEAN_ANOMALY":"264.6459","ARG_OF_PERICENTER":"95.4671","MEAN_MOTION_DDOT":"0.0000000000000","LAUNCH_DATE":"2022-09-05","ECCENTRICITY":"0.00012050","BSTAR":"0.00017097000000","NORAD_CAT_ID":"53732","REV_AT_EPOCH":"4222","PERIOD":"95.438","SITE":"AFETR","CENTER_NAME":"EARTH","TLE_LINE2":"2 53732  53.2163 103.8977 0001205  95.4671 264.6459 15.08830568 42227","GP_ID":"233219494","INCLINATION":"53.2163","REF_FRAME":"TEME","RA_OF_ASC_NODE":"103.8977","DECAY_DATE":null,"ELEMENT_SET_NO":"999","PERIAPSIS":"538.941","OBJECT_TYPE":"PAYLOAD","COUNTRY_CODE":"US","FILE":"3925173","OBJECT_NAME":"STARLINK-4661"},{"PERIAPSIS":"538.849","ELEMENT_SET_NO":"999","COUNTRY_CODE":"US","OBJECT_TYPE":"PAYLOAD","FILE":"3925173","OBJECT_NAME":"STARLINK-4574","TLE_LINE2":"2 53733  53.2167 103.0909 0001305  93.0125 267.1016 15.08837947 42289","GP_ID":"233218242","INCLINATION":"53.2167","DECAY_DATE":null,"RA_OF_ASC_NODE":"103.0909","REF_FRAME":"TEME","SITE":"AFETR","CENTER_NAME":"EARTH","NORAD_CAT_ID":"53733","REV_AT_EPOCH":"4228","PERIOD":"95.438","LAUNCH_DATE":"2022-09-05","MEAN_MOTION_DDOT":"0.0000000000000","ECCENTRICITY":"0.00013050","BSTAR":"0.00003600000000","MEAN_ELEMENT_THEORY":"SGP4","OBJECT_ID":"2022-107AK","MEAN_MOTION":"15.08837947","SEMIMAJOR_AXIS":"6917.887","EPOCH":"2023-06-04T21:00:17.454528","ARG_OF_PERICENTER":"93.0125","CLASSIFICATION_TYPE":"U","MEAN_ANOMALY":"267.1016","APOAPSIS":"540.654","TIME_SYSTEM":"UTC","TLE_LINE1":"1 53733U 22107AK  23155.87520202  .00000285  00000-0  36000-4 0  9993","EPHEMERIS_TYPE":"0","RCS_SIZE":"LARGE","MEAN_MOTION_DOT":"0.00000285"},{"CENTER_NAME":"EARTH","SITE":"AFETR","PERIOD":"95.437","REV_AT_EPOCH":"4161","NORAD_CAT_ID":"53734","OBJECT_NAME":"STARLINK-4616","FILE":"3925096","OBJECT_TYPE":"PAYLOAD","COUNTRY_CODE":"US","ELEMENT_SET_NO":"999","PERIAPSIS":"539.005","RA_OF_ASC_NODE":"104.1905","REF_FRAME":"TEME","DECAY_DATE":null,"INCLINATION":"53.2165","GP_ID":"233193223","TLE_LINE2":"2 53734  53.2165 104.1905 0001065  95.1252 264.9861 15.08841258 41612","TLE_LINE1":"1 53734U 22107AL  23155.59550256  .00001760  00000-0  12866-3 0  9997","TIME_SYSTEM":"UTC","APOAPSIS":"540.478","MEAN_MOTION_DOT":"0.00001760","RCS_SIZE":"LARGE","EPHEMERIS_TYPE":"0","ECCENTRICITY":"0.00010650","BSTAR":"0.00012866000000","MEAN_MOTION_DDOT":"0.0000000000000","LAUNCH_DATE":"2022-09-05","CLASSIFICATION_TYPE":"U","MEAN_ANOMALY":"264.9861","ARG_OF_PERICENTER":"95.1252","EPOCH":"2023-06-04T14:17:31.421184","SEMIMAJOR_AXIS":"6917.877","MEAN_MOTION":"15.08841258","OBJECT_ID":"2022-107AL","MEAN_ELEMENT_THEORY":"SGP4"},{"TLE_LINE1":"1 53735U 22107AM  23155.90367080  .00000059  00000-0  21806-4 0  9999","TIME_SYSTEM":"UTC","APOAPSIS":"540.517","EPHEMERIS_TYPE":"0","MEAN_MOTION_DOT":"0.00000059","RCS_SIZE":"LARGE","BSTAR":"0.00002180600000","ECCENTRICITY":"0.00011120","MEAN_MOTION_DDOT":"0.0000000000000","LAUNCH_DATE":"2022-09-05","SEMIMAJOR_AXIS":"6917.883","EPOCH":"2023-06-04T21:41:17.157120","MEAN_MOTION":"15.08839268","CLASSIFICATION_TYPE":"U","MEAN_ANOMALY":"273.0709","ARG_OF_PERICENTER":"87.0410","MEAN_ELEMENT_THEORY":"SGP4","OBJECT_ID":"2022-107AM","SITE":"AFETR","CENTER_NAME":"EARTH","PERIOD":"95.438","NORAD_CAT_ID":"53735","REV_AT_EPOCH":"4215","FILE":"3925173","OBJECT_NAME":"STARLINK-4618","ELEMENT_SET_NO":"999","PERIAPSIS":"538.978","OBJECT_TYPE":"PAYLOAD","COUNTRY_CODE":"US","INCLINATION":"53.2161","RA_OF_ASC_NODE":"112.5473","REF_FRAME":"TEME","DECAY_DATE":null,"TLE_LINE2":"2 53735  53.2161 112.5473 0001112  87.0410 273.0709 15.08839268 42151","GP_ID":"233219244"},{"MEAN_MOTION_DDOT":"0.0000000000000","LAUNCH_DATE":"2022-09-05","ECCENTRICITY":"0.00012000","BSTAR":"0.00002214900000","MEAN_ELEMENT_THEORY":"SGP4","OBJECT_ID":"2022-107AN","EPOCH":"2023-06-04T16:08:49.833600","SEMIMAJOR_AXIS":"6917.892","MEAN_MOTION":"15.08836283","CLASSIFICATION_TYPE":"U","MEAN_ANOMALY":"268.1799","ARG_OF_PERICENTER":"91.9330","APOAPSIS":"540.587","TIME_SYSTEM":"UTC","TLE_LINE1":"1 53736U 22107AN  23155.67279900  .00000065  00000-0  22149-4 0  9995","EPHEMERIS_TYPE":"0","MEAN_MOTION_DOT":"0.00000065","RCS_SIZE":"LARGE","ELEMENT_SET_NO":"999","PERIAPSIS":"538.927","COUNTRY_CODE":"US","OBJECT_TYPE":"PAYLOAD","FILE":"3925173","OBJECT_NAME":"STARLINK-4652","TLE_LINE2":"2 53736  53.2164 103.9612 0001200  91.9330 268.1799 15.08836283 42256","GP_ID":"233218994","INCLINATION":"53.2164","REF_FRAME":"TEME","RA_OF_ASC_NODE":"103.9612","DECAY_DATE":null,"SITE":"AFETR","CENTER_NAME":"EARTH","NORAD_CAT_ID":"53736","REV_AT_EPOCH":"4225","PERIOD":"95.438"},{"FILE":"3925173","OBJECT_NAME":"STARLINK-4646","PERIAPSIS":"538.906","ELEMENT_SET_NO":"999","OBJECT_TYPE":"PAYLOAD","COUNTRY_CODE":"US","INCLINATION":"53.2165","DECAY_DATE":null,"REF_FRAME":"TEME","RA_OF_ASC_NODE":"112.5711","TLE_LINE2":"2 53737  53.2165 112.5711 0001242  91.4951 268.6184 15.08833593 42304","GP_ID":"233217742","SITE":"AFETR","CENTER_NAME":"EARTH","PERIOD":"95.438","NORAD_CAT_ID":"53737","REV_AT_EPOCH":"4230","BSTAR":"0.00006067800000","ECCENTRICITY":"0.00012420","LAUNCH_DATE":"2022-09-05","MEAN_MOTION_DDOT":"0.0000000000000","MEAN_MOTION":"15.08833593","EPOCH":"2023-06-04T21:46:35.700096","SEMIMAJOR_AXIS":"6917.900","ARG_OF_PERICENTER":"91.4951","CLASSIFICATION_TYPE":"U","MEAN_ANOMALY":"268.6184","MEAN_ELEMENT_THEORY":"SGP4","OBJECT_ID":"2022-107AP","TIME_SYSTEM":"UTC","TLE_LINE1":"1 53737U 22107AP  23155.90735764  .00000678  00000-0  60678-4 0  9996","APOAPSIS":"540.624","EPHEMERIS_TYPE":"0","RCS_SIZE":"LARGE","MEAN_MOTION_DOT":"0.00000678"},{"TLE_LINE1":"1 53738U 22107AQ  23155.30382604  .00000169  00000-0  28695-4 0  9990","TIME_SYSTEM":"UTC","APOAPSIS":"540.604","EPHEMERIS_TYPE":"0","MEAN_MOTION_DOT":"0.00000169","RCS_SIZE":"LARGE","BSTAR":"0.00002869500000","ECCENTRICITY":"0.00012320","MEAN_MOTION_DDOT":"0.0000000000000","LAUNCH_DATE":"2022-09-05","EPOCH":"2023-06-04T07:17:30.569856","SEMIMAJOR_AXIS":"6917.887","MEAN_MOTION":"15.08837926","CLASSIFICATION_TYPE":"U","MEAN_ANOMALY":"266.8735","ARG_OF_PERICENTER":"93.2398","MEAN_ELEMENT_THEORY":"SGP4","OBJECT_ID":"2022-107AQ","SITE":"AFETR","CENTER_NAME":"EARTH","PERIOD":"95.438","NORAD_CAT_ID":"53738","REV_AT_EPOCH":"4206","FILE":"3924842","OBJECT_NAME":"STARLINK-4662","ELEMENT_SET_NO":"999","PERIAPSIS":"538.899","OBJECT_TYPE":"PAYLOAD","COUNTRY_CODE":"US","INCLINATION":"53.2162","REF_FRAME":"TEME","RA_OF_ASC_NODE":"115.1998","DECAY_DATE":null,"TLE_LINE2":"2 53738  53.2162 115.1998 0001232  93.2398 266.8735 15.08837926 42061","GP_ID":"233183650"}];
